STARLINK-1400           
1 45700U 20035AV  25277.66347067  .00027940  00000+0  18880-2 0  9996
2 45700  53.0549  17.0500 0001215  91.8233 268.2895 15.06384033295630
STARLINK-1403           
1 45701U 20035AW  25277.69297647 -.00000233  00000+0  32719-5 0  9995
2 45701  53.0572  16.9144 0001609 113.1147 247.0012 15.06383974295637
STARLINK-1407           
1 45703U 20035AY  25277.59509808  .00031943  00000+0  89646-3 0  9991
2 45703  53.0441 342.1058 0009261 300.0069  60.0013 15.36265665296122
STARLINK-1411           
1 45706U 20035BB  25277.63782738  .00149903  00000+0  46072-2 0  9995
2 45706  53.0571   8.6622 0002223  32.7347 327.3791 15.32647644295745
STARLINK-1423           
1 45710U 20035BF  25277.45338228 -.00010737  00000+0 -70309-3 0  9996
2 45710  53.0579  17.9942 0002088 107.1705 252.9513 15.06394052295603
STARLINK-1433           
1 45711U 20035BG  25277.70034313  .00005494  00000+0  38754-3 0  9993
2 45711  53.0554  16.8818 0001355 100.3051 259.8091 15.06390897295635
STARLINK-1434           
1 45712U 20035BH  25277.66938409  .00038659  00000+0  21621-2 0  9991
2 45712  53.0520  14.6432 0000633 312.9646  47.1293 15.13125579295673
STARLINK-1465           
1 45731U 20038B   25277.79986301  .00003495  00000+0  25338-3 0  9993
2 45731  53.0531 216.4299 0001502 113.4238 246.6909 15.06402658292693
STARLINK-1471           
1 45735U 20038F   25277.68922131  .00026963  00000+0  68323-3 0  9992
2 45735  53.0511 163.6132 0003797 102.2806 257.8623 15.39543160293439
STARLINK-1474           
1 45738U 20038J   25276.61046788  .00084122  00000+0  92869-3 0  9995
2 45738  53.0376 130.9826 0005562 163.9591 196.1600 15.62358268293793
STARLINK-1475           
1 45739U 20038K   25277.91667823  .00291392  00000+0  28457-2 0  9999
2 45739  53.0522  92.2666 0004666 144.9467 136.1042 15.64723716  6044
STARLINK-1480           
1 45741U 20038M   25277.84778360  .00005013  00000+0  35515-3 0  9990
2 45741  53.0527 216.2216 0001559  79.8100 280.3065 15.06404024292711
STARLINK-1500           
1 45744U 20038Q   25276.22009990  .00039610  00000+0  15207-2 0  9995
2 45744  53.0385 206.4103 0005460 107.0123 253.1473 15.26091797292707
STARLINK-1504           
1 45746U 20038S   25276.30809226  .00040782  00000+0  11464-2 0  9999
2 45746  53.0284 172.9337 0006566  79.9243 280.2500 15.36116341293179
STARLINK-1506           
1 45747U 20038T   25277.77457992  .00032983  00000+0  15053-2 0  9993
2 45747  53.0503 200.5565 0005018 133.8605 226.2805 15.20331140292927
STARLINK-1464           
1 45751U 20038X   25277.51789295  .00010219  00000+0  70380-3 0  9997
2 45751  53.0537 197.7007 0001789  88.3221 271.7973 15.06406444292943
