[{"OBJECT_NAME":"STARLINK-1400","OBJECT_ID":"2020-035AV","EPOCH":"2025-10-04T15:55:23.865888","MEAN_MOTION":15.06384033,"ECCENTRICITY":0.0001215,"INCLINATION":53.0549,"RA_OF_ASC_NODE":17.05,"ARG_OF_PERICENTER":91.8233,"MEAN_ANOMALY":268.2895,"EPHEMERIS_TYPE":0,"CLASSIFICATION_TYPE":"U","NORAD_CAT_ID":45700,"ELEMENT_SET_NO":999,"REV_AT_EPOCH":29563,"BSTAR":0.001888,"MEAN_MOTION_DOT":0.0002794,"MEAN_MOTION_DDOT":0},{"OBJECT_NAME":"STARLINK-1403","OBJECT_ID":"2020-035AW","EPOCH":"2025-10-04T16:37:53.167008","MEAN_MOTION":15.06383974,"ECCENTRICITY":0.0001609,"INCLINATION":53.0572,"RA_OF_ASC_NODE":16.9144,"ARG_OF_PERICENTER":113.1147,"MEAN_ANOMALY":247.0012,"EPHEMERIS_TYPE":0,"CLASSIFICATION_TYPE":"U","NORAD_CAT_ID":45701,"ELEMENT_SET_NO":999,"REV_AT_EPOCH":29563,"BSTAR":3.2719e-6,"MEAN_MOTION_DOT":-2.33e-6,"MEAN_MOTION_DDOT":0},{"OBJECT_NAME":"STARLINK-1407","OBJECT_ID":"2020-035AY","EPOCH":"2025-10-04T14:16:56.474112","MEAN_MOTION":15.36265665,"ECCENTRICITY":0.0009261,"INCLINATION":53.0441,"RA_OF_ASC_NODE":342.1058,"ARG_OF_PERICENTER":300.0069,"MEAN_ANOMALY":60.0013,"EPHEMERIS_TYPE":0,"CLASSIFICATION_TYPE":"U","NORAD_CAT_ID":45703,"ELEMENT_SET_NO":999,"REV_AT_EPOCH":29612,"BSTAR":0.00089646,"MEAN_MOTION_DOT":0.00031943,"MEAN_MOTION_DDOT":0},{"OBJECT_NAME":"STARLINK-1411","OBJECT_ID":"2020-035BB","EPOCH":"2025-10-04T15:18:28.285632","MEAN_MOTION":15.32647644,"ECCENTRICITY":0.0002223,"INCLINATION":53.0571,"RA_OF_ASC_NODE":8.6622,"ARG_OF_PERICENTER":32.7347,"MEAN_ANOMALY":327.3791,"EPHEMERIS_TYPE":0,"CLASSIFICATION_TYPE":"U","NORAD_CAT_ID":45706,"ELEMENT_SET_NO":999,"REV_AT_EPOCH":29574,"BSTAR":0.0046072,"MEAN_MOTION_DOT":0.00149903,"MEAN_MOTION_DDOT":0},{"OBJECT_NAME":"STARLINK-1423","OBJECT_ID":"2020-035BF","EPOCH":"2025-10-04T10:52:52.228992","MEAN_MOTION":15.06394052,"ECCENTRICITY":0.0002088,"INCLINATION":53.0579,"RA_OF_ASC_NODE":17.9942,"ARG_OF_PERICENTER":107.1705,"MEAN_ANOMALY":252.9513,"EPHEMERIS_TYPE":0,"CLASSIFICATION_TYPE":"U","NORAD_CAT_ID":45710,"ELEMENT_SET_NO":999,"REV_AT_EPOCH":29560,"BSTAR":-0.00070309,"MEAN_MOTION_DOT":-0.00010737,"MEAN_MOTION_DDOT":0},{"OBJECT_NAME":"STARLINK-1433","OBJECT_ID":"2020-035BG","EPOCH":"2025-10-04T16:48:29.646432","MEAN_MOTION":15.06390897,"ECCENTRICITY":0.0001355,"INCLINATION":53.0554,"RA_OF_ASC_NODE":16.8818,"ARG_OF_PERICENTER":100.3051,"MEAN_ANOMALY":259.8091,"EPHEMERIS_TYPE":0,"CLASSIFICATION_TYPE":"U","NORAD_CAT_ID":45711,"ELEMENT_SET_NO":999,"REV_AT_EPOCH":29563,"BSTAR":0.00038754,"MEAN_MOTION_DOT":5.494e-5,"MEAN_MOTION_DDOT":0},{"OBJECT_NAME":"STARLINK-1434","OBJECT_ID":"2020-035BH","EPOCH":"2025-10-04T16:03:54.785376","MEAN_MOTION":15.13125579,"ECCENTRICITY":6.33e-5,"INCLINATION":53.052,"RA_OF_ASC_NODE":14.6432,"ARG_OF_PERICENTER":312.9646,"MEAN_ANOMALY":47.1293,"EPHEMERIS_TYPE":0,"CLASSIFICATION_TYPE":"U","NORAD_CAT_ID":45712,"ELEMENT_SET_NO":999,"REV_AT_EPOCH":29567,"BSTAR":0.0021621,"MEAN_MOTION_DOT":0.00038659,"MEAN_MOTION_DDOT":0},{"OBJECT_NAME":"STARLINK-1465","OBJECT_ID":"2020-038B","EPOCH":"2025-10-04T19:11:48.164064","MEAN_MOTION":15.06402658,"ECCENTRICITY":0.0001502,"INCLINATION":53.0531,"RA_OF_ASC_NODE":216.4299,"ARG_OF_PERICENTER":113.4238,"MEAN_ANOMALY":246.6909,"EPHEMERIS_TYPE":0,"CLASSIFICATION_TYPE":"U","NORAD_CAT_ID":45731,"ELEMENT_SET_NO":999,"REV_AT_EPOCH":29269,"BSTAR":0.00025338,"MEAN_MOTION_DOT":3.495e-5,"MEAN_MOTION_DDOT":0},{"OBJECT_NAME":"STARLINK-1471","OBJECT_ID":"2020-038F","EPOCH":"2025-10-04T16:32:28.721184","MEAN_MOTION":15.3954316,"ECCENTRICITY":0.0003797,"INCLINATION":53.0511,"RA_OF_ASC_NODE":163.6132,"ARG_OF_PERICENTER":102.2806,"MEAN_ANOMALY":257.8623,"EPHEMERIS_TYPE":0,"CLASSIFICATION_TYPE":"U","NORAD_CAT_ID":45735,"ELEMENT_SET_NO":999,"REV_AT_EPOCH":29343,"BSTAR":0.00068323,"MEAN_MOTION_DOT":0.00026963,"MEAN_MOTION_DDOT":0},{"OBJECT_NAME":"STARLINK-1474","OBJECT_ID":"2020-038J","EPOCH":"2025-10-03T14:39:04.424832","MEAN_MOTION":15.62358268,"ECCENTRICITY":0.00055626,"INCLINATION":53.0376,"RA_OF_ASC_NODE":130.9826,"ARG_OF_PERICENTER":163.9591,"MEAN_ANOMALY":196.16,"EPHEMERIS_TYPE":0,"CLASSIFICATION_TYPE":"U","NORAD_CAT_ID":45738,"ELEMENT_SET_NO":999,"REV_AT_EPOCH":29379,"BSTAR":0.0009286914,"MEAN_MOTION_DOT":0.00084122,"MEAN_MOTION_DDOT":0},{"OBJECT_NAME":"STARLINK-1475","OBJECT_ID":"2020-038K","EPOCH":"2025-10-04T22:00:00.999072","MEAN_MOTION":15.64723716,"ECCENTRICITY":0.0004666,"INCLINATION":53.0522,"RA_OF_ASC_NODE":92.2666,"ARG_OF_PERICENTER":144.9467,"MEAN_ANOMALY":136.1042,"EPHEMERIS_TYPE":0,"CLASSIFICATION_TYPE":"U","NORAD_CAT_ID":45739,"ELEMENT_SET_NO":999,"REV_AT_EPOCH":604,"BSTAR":0.0028457,"MEAN_MOTION_DOT":0.00291392,"MEAN_MOTION_DDOT":0},{"OBJECT_NAME":"STARLINK-1480","OBJECT_ID":"2020-038M","EPOCH":"2025-10-04T20:20:48.503040","MEAN_MOTION":15.06404024,"ECCENTRICITY":0.0001559,"INCLINATION":53.0527,"RA_OF_ASC_NODE":216.2216,"ARG_OF_PERICENTER":79.81,"MEAN_ANOMALY":280.3065,"EPHEMERIS_TYPE":0,"CLASSIFICATION_TYPE":"U","NORAD_CAT_ID":45741,"ELEMENT_SET_NO":999,"REV_AT_EPOCH":29271,"BSTAR":0.00035515,"MEAN_MOTION_DOT":5.013e-5,"MEAN_MOTION_DDOT":0},{"OBJECT_NAME":"STARLINK-1500","OBJECT_ID":"2020-038Q","EPOCH":"2025-10-03T05:16:56.631360","MEAN_MOTION":15.26091797,"ECCENTRICITY":0.00054603,"INCLINATION":53.0385,"RA_OF_ASC_NODE":206.4103,"ARG_OF_PERICENTER":107.0123,"MEAN_ANOMALY":253.1473,"EPHEMERIS_TYPE":0,"CLASSIFICATION_TYPE":"U","NORAD_CAT_ID":45744,"ELEMENT_SET_NO":999,"REV_AT_EPOCH":29270,"BSTAR":0.0015206703,"MEAN_MOTION_DOT":0.0003961,"MEAN_MOTION_DDOT":0},{"OBJECT_NAME":"STARLINK-1504","OBJECT_ID":"2020-038S","EPOCH":"2025-10-03T07:23:39.171264","MEAN_MOTION":15.36116341,"ECCENTRICITY":0.00065669,"INCLINATION":53.0284,"RA_OF_ASC_NODE":172.9337,"ARG_OF_PERICENTER":79.9243,"MEAN_ANOMALY":280.25,"EPHEMERIS_TYPE":0,"CLASSIFICATION_TYPE":"U","NORAD_CAT_ID":45746,"ELEMENT_SET_NO":999,"REV_AT_EPOCH":29317,"BSTAR":0.0011464084,"MEAN_MOTION_DOT":0.00040782,"MEAN_MOTION_DDOT":0},{"OBJECT_NAME":"STARLINK-1506","OBJECT_ID":"2020-038T","EPOCH":"2025-10-04T18:35:23.705088","MEAN_MOTION":15.2033114,"ECCENTRICITY":0.0005018,"INCLINATION":53.0503,"RA_OF_ASC_NODE":200.5565,"ARG_OF_PERICENTER":133.8605,"MEAN_ANOMALY":226.2805,"EPHEMERIS_TYPE":0,"CLASSIFICATION_TYPE":"U","NORAD_CAT_ID":45747,"ELEMENT_SET_NO":999,"REV_AT_EPOCH":29292,"BSTAR":0.0015053,"MEAN_MOTION_DOT":0.00032983,"MEAN_MOTION_DDOT":0},{"OBJECT_NAME":"STARLINK-1464","OBJECT_ID":"2020-038X","EPOCH":"2025-10-04T12:25:45.950880","MEAN_MOTION":15.06406444,"ECCENTRICITY":0.0001789,"INCLINATION":53.0537,"RA_OF_ASC_NODE":197.7007,"ARG_OF_PERICENTER":88.3221,"MEAN_ANOMALY":271.7973,"EPHEMERIS_TYPE":0,"CLASSIFICATION_TYPE":"U","NORAD_CAT_ID":45751,"ELEMENT_SET_NO":999,"REV_AT_EPOCH":29294,"BSTAR":0.0007038,"MEAN_MOTION_DOT":0.00010219,"MEAN_MOTION_DDOT":0}]
